{"fetched_at":"2026-03-29T16:36:15Z","count":15609,"tles":[{"name":"STARLINK-36122","line1":"1 66952U 25286AD  26087.77614812  .00022488  00000+0  76893-3 0  9999","line2":"2 66952  53.1572 270.1710 0000779  79.1188 280.9900 15.30206087 18333","category":"Starlink"}]}